1 26900U 01039A 26162.11417375 -.00000269 00000+0 00000+0 0 9992 
2 26900 6.1028 71.8574 0004510 4.3107 174.2924 1.00272199 90631 
1 27380U 02007A 26162.21815253 -.00000212 00000+0 00000+0 0 9997 
2 27380 6.9044 69.2544 0006583 2.3114 235.0456 1.00272119 51709 
1 27426U 02023A 26161.88845186 -.00000042 00000+0 00000+0 0 9997 
2 27426 4.8608 75.3870 0003272 16.3002 17.2943 1.00271427 88067 
1 27438U 02027A 26162.25413201 .00000107 00000+0 00000+0 0 9996 
2 27438 6.7380 69.8699 0003863 17.0372 126.9661 1.00271406 51308 
1 27445U 02030A 26162.12187852 -.00000137 00000+0 00000+0 0 9998 
2 27445 3.7147 78.0560 0001670 33.1798 97.2638 1.00271176 46434 
1 27513U 02041A 26162.20813823 .00000027 00000+0 00000+0 0 9996 
2 27513 5.7882 72.9953 0004658 0.9207 324.6993 1.00271732 86964 
1 27954U 03044A 26162.27196807 .00000149 00000+0 00000+0 0 9997 
2 27954 1.4047 83.9332 0002129 353.8891 129.7180 1.00274573 46517 
1 28358U 04022A 26162.19522484 .00000007 00000+0 00000+0 0 9991 
2 28358 0.0130 324.2334 0000313 184.7134 179.8731 1.00273460 80498 
1 28659U 05019A 26162.24317883 .00000018 00000+0 00000+0 0 9995 
2 28659 0.0151 48.6061 0002859 35.4050 144.0790 1.00271790 77012 
1 28702U 05022A 26162.20791358 -.00000184 00000+0 00000+0 0 9992 
2 28702 3.2840 79.0057 0002860 357.9953 230.3033 1.00271877 51916 
1 29236U 06023A 26162.18514200 -.00000109 00000+0 00000+0 0 9990 
2 29236 0.0284 147.3864 0002418 299.0207 140.7831 1.00270835 72914 
1 29494U 06043A 26162.22772250 -.00000097 00000+0 00000+0 0 9990 
2 29494 2.4046 80.9719 0004923 9.0671 150.3311 1.00271037 51327 
1 31307U 07016B 26162.16225447 -.00000190 00000+0 00000+0 0 9995 
2 31307 2.9561 79.9744 0004788 18.7666 134.1891 1.00270606 69745 
1 32253U 07044B 26162.22554546 -.00000264 00000+0 00000+0 0 9991 
2 32253 3.5491 78.7397 0002044 87.8354 326.2382 0.99053176 68397 
1 32388U 07063B 26162.15669696 -.00000237 00000+0 00000+0 0 9996 
2 32388 2.5857 80.6978 0003841 357.7718 163.6778 1.00270627 67753 
1 32729U 08013A 26162.24707884 -.00000108 00000+0 00000+0 0 9990 
2 32729 0.0136 275.9834 0000251 121.4627 211.9197 1.00270274 45534 
1 32951U 08024A 26161.88585185 .00000042 00000+0 00000+0 0 9992 
2 32951 0.0192 320.9793 0003094 131.2379 2.9386 1.00272653 45798 
1 33153U 08034A 26162.22476546 -.00000267 00000+0 00000+0 0 9997 
2 33153 2.6935 80.4408 0003083 55.6554 352.5645 0.99037649 65637 
1 33376U 08045A 26162.03344124 -.00000122 00000+0 00000+0 0 9991 
2 33376 0.0155 295.3035 0002618 144.8139 94.3158 1.00270808 64847 
1 35493U 09034A 26162.16225447 -.00000183 00000+0 00000+0 0 9999 
2 35493 0.0149 298.4142 0000674 350.0802 303.2820 1.00270319 46589 
1 36097U 09064A 26162.11521375 -.00000256 00000+0 00000+0 0 9998 
2 36097 0.0174 357.9227 0002702 100.1504 157.8674 1.00269507 60549 
1 36106U 09067A 26161.99841277 -.00000168 00000+0 00000+0 0 9995 
2 36106 0.0159 1.4448 0002160 83.3005 259.1829 1.00270566 41167 
1 36131U 09075A 26161.46219877 -.00000086 00000+0 00000+0 0 9998 
2 36131 0.0318 158.8061 0000301 239.6820 284.0043 1.00272017 46484 
1 36397U 10006A 26162.15669696 -.00000227 00000+0 00000+0 0 9990 
2 36397 0.0087 316.9910 0001935 140.2745 142.4586 1.00271518 59598 
1 37185U 10053A 26161.91780745 -.00000005 00000+0 00000+0 0 9994 
2 37185 0.0638 273.9953 0002927 284.4226 276.0636 1.00269607 57428 
1 37238U 10065B 26162.13717938 .00000016 00000+0 00000+0 0 9996 
2 37238 0.0140 104.3450 0002577 344.4483 286.0783 1.00270702 53188 
1 37392U 11016A 26162.19229880 -.00000208 00000+0 00000+0 0 9998 
2 37392 1.7899 82.6931 0003686 2.3471 212.0266 1.00271416 53222 
1 37834U 11056A 26162.08848708 .00000070 00000+0 00000+0 0 9993 
2 37834 0.0169 290.8713 0002073 165.9275 14.5048 1.00271744 53758 
1 38098U 12011A 26162.13839272 .00000000 00000+0 00000+0 0 9993 
2 38098 0.0305 39.2258 0001490 52.7381 289.4201 1.00271002 7126 
1 38356U 12030A 26162.21433755 -.00000039 00000+0 00000+0 0 9999 
2 38356 0.0169 338.0481 0002949 110.7219 53.9629 1.00271820 50397 
1 38740U 12043A 26162.06638949 -.00000008 00000+0 00000+0 0 9991 
2 38740 0.0058 68.2223 0001900 105.7673 177.8471 1.00273292 50689 
